start=new Date('2023-06-03T00:00:00.000Z').valueOf();
sats=[{"SITE":"AFWTR","OBJECT_ID":"2022-084K","MEAN_ELEMENT_THEORY":"SGP4","NORAD_CAT_ID":"53198","RA_OF_ASC_NODE":"215.0079","COUNTRY_CODE":"US","OBJECT_TYPE":"PAYLOAD","ELEMENT_SET_NO":"999","MEAN_ANOMALY":"216.1026","MEAN_MOTION_DDOT":"0.0000000000000","ARG_OF_PERICENTER":"144.0291","APOAPSIS":"563.975","TLE_LINE2":"2 53198  97.6572 215.0079 0001372 144.0291 216.1026 15.01256620 48291","DECAY_DATE":null,"CENTER_NAME":"EARTH","SEMIMAJOR_AXIS":"6941.157","REV_AT_EPOCH":"4829","RCS_SIZE":"LARGE","EPHEMERIS_TYPE":"0","OBJECT_NAME":"STARLINK-4385","REF_FRAME":"TEME","MEAN_MOTION_DOT":"0.00000995","TIME_SYSTEM":"UTC","MEAN_MOTION":"15.01256620","BSTAR":"0.00008208600000","CLASSIFICATION_TYPE":"U","PERIAPSIS":"562.070","TLE_LINE1":"1 53198U 22084K   23153.72197614  .00000995  00000-0  82086-4 0  9994","ECCENTRICITY":"0.00013720","FILE":"3923570","GP_ID":"233073475","EPOCH":"2023-06-02T17:19:38.738496","PERIOD":"95.920","INCLINATION":"97.6572","LAUNCH_DATE":"2022-07-22"},{"CLASSIFICATION_TYPE":"U","BSTAR":"0.00008039500000","PERIAPSIS":"562.021","TIME_SYSTEM":"UTC","EPHEMERIS_TYPE":"0","OBJECT_NAME":"STARLINK-4395","MEAN_MOTION_DOT":"0.00000974","REF_FRAME":"TEME","MEAN_MOTION":"15.01257030","EPOCH":"2023-06-02T17:11:38.792544","PERIOD":"95.920","LAUNCH_DATE":"2022-07-22","INCLINATION":"97.6567","FILE":"3923570","GP_ID":"233072226","TLE_LINE1":"1 53199U 22084L   23153.71642121  .00000974  00000-0  80395-4 0  9990","ECCENTRICITY":"0.00014410","OBJECT_TYPE":"PAYLOAD","ELEMENT_SET_NO":"999","MEAN_MOTION_DDOT":"0.0000000000000","MEAN_ANOMALY":"204.8463","MEAN_ELEMENT_THEORY":"SGP4","SITE":"AFWTR","OBJECT_ID":"2022-084L","COUNTRY_CODE":"US","NORAD_CAT_ID":"53199","RA_OF_ASC_NODE":"215.0060","REV_AT_EPOCH":"4763","DECAY_DATE":null,"CENTER_NAME":"EARTH","SEMIMAJOR_AXIS":"6941.156","RCS_SIZE":"LARGE","ARG_OF_PERICENTER":"155.2830","APOAPSIS":"564.021","TLE_LINE2":"2 53199  97.6567 215.0060 0001441 155.2830 204.8463 15.01257030 47638"},{"MEAN_MOTION_DDOT":"0.0000000000000","MEAN_ANOMALY":"200.5898","OBJECT_TYPE":"PAYLOAD","ELEMENT_SET_NO":"999","COUNTRY_CODE":"US","NORAD_CAT_ID":"53200","RA_OF_ASC_NODE":"215.0082","MEAN_ELEMENT_THEORY":"SGP4","SITE":"AFWTR","OBJECT_ID":"2022-084M","RCS_SIZE":"LARGE","REV_AT_EPOCH":"4829","CENTER_NAME":"EARTH","DECAY_DATE":null,"SEMIMAJOR_AXIS":"6941.151","APOAPSIS":"564.253","TLE_LINE2":"2 53200  97.6569 215.0082 0001782 159.5398 200.5898 15.01258682 48293","ARG_OF_PERICENTER":"159.5398","PERIAPSIS":"561.779","CLASSIFICATION_TYPE":"U","BSTAR":"0.00006750600000","MEAN_MOTION":"15.01258682","TIME_SYSTEM":"UTC","EPHEMERIS_TYPE":"0","REF_FRAME":"TEME","MEAN_MOTION_DOT":"0.00000808","OBJECT_NAME":"STARLINK-4417","LAUNCH_DATE":"2022-07-22","INCLINATION":"97.6569","EPOCH":"2023-06-02T17:16:58.764576","PERIOD":"95.920","GP_ID":"233072476","FILE":"3923570","TLE_LINE1":"1 53200U 22084M   23153.72012459  .00000808  00000-0  67506-4 0  9994","ECCENTRICITY":"0.00017820"},{"ELEMENT_SET_NO":"999","OBJECT_TYPE":"PAYLOAD","MEAN_MOTION_DDOT":"0.0000000000000","MEAN_ANOMALY":"236.3226","MEAN_ELEMENT_THEORY":"SGP4","OBJECT_ID":"2022-084N","SITE":"AFWTR","COUNTRY_CODE":"US","RA_OF_ASC_NODE":"215.2012","NORAD_CAT_ID":"53201","REV_AT_EPOCH":"4766","SEMIMAJOR_AXIS":"6941.162","DECAY_DATE":null,"CENTER_NAME":"EARTH","RCS_SIZE":"LARGE","ARG_OF_PERICENTER":"123.8080","TLE_LINE2":"2 53201  97.6555 215.2012 0000863 123.8080 236.3226 15.01255032 47663","APOAPSIS":"563.626","CLASSIFICATION_TYPE":"U","BSTAR":"0.00000811700000","PERIAPSIS":"562.428","TIME_SYSTEM":"UTC","REF_FRAME":"TEME","MEAN_MOTION_DOT":"0.00000045","OBJECT_NAME":"STARLINK-4405","EPHEMERIS_TYPE":"0","MEAN_MOTION":"15.01255032","PERIOD":"95.920","EPOCH":"2023-06-02T21:54:15.452640","LAUNCH_DATE":"2022-07-22","INCLINATION":"97.6555","GP_ID":"233072727","FILE":"3923570","ECCENTRICITY":"0.00008630","TLE_LINE1":"1 53201U 22084N   23153.91267885  .00000045  00000-0  81170-5 0  9998"},{"ARG_OF_PERICENTER":"225.1155","TLE_LINE2":"2 53202  97.6519 215.1198 0002761 225.1155 134.9845 15.00445541 47649","APOAPSIS":"567.441","SEMIMAJOR_AXIS":"6943.658","DECAY_DATE":null,"CENTER_NAME":"EARTH","REV_AT_EPOCH":"4764","RCS_SIZE":"MEDIUM","OBJECT_ID":"2022-084P","SITE":"AFWTR","MEAN_ELEMENT_THEORY":"SGP4","RA_OF_ASC_NODE":"215.1198","NORAD_CAT_ID":"53202","COUNTRY_CODE":"US","ELEMENT_SET_NO":"999","OBJECT_TYPE":"PAYLOAD","MEAN_ANOMALY":"134.9845","MEAN_MOTION_DDOT":"0.0000000000000","ECCENTRICITY":"0.00027610","TLE_LINE1":"1 53202U 22084P   23153.74175853 -.00000289  00000-0 -18333-4 0  9995","GP_ID":"233072975","FILE":"3923570","PERIOD":"95.971","EPOCH":"2023-06-02T17:48:07.936992","INCLINATION":"97.6519","LAUNCH_DATE":"2022-07-22","REF_FRAME":"TEME","OBJECT_NAME":"STARLINK-4411","MEAN_MOTION_DOT":"-0.00000289","EPHEMERIS_TYPE":"0","TIME_SYSTEM":"UTC","MEAN_MOTION":"15.00445541","BSTAR":"-0.00001833300000","CLASSIFICATION_TYPE":"U","PERIAPSIS":"563.606"},{"FILE":"3923570","GP_ID":"233071726","TLE_LINE1":"1 53203U 22084Q   23153.90897876  .00000927  00000-0  76729-4 0  9990","ECCENTRICITY":"0.00017880","LAUNCH_DATE":"2022-07-22","INCLINATION":"97.6561","EPOCH":"2023-06-02T21:48:55.764864","PERIOD":"95.920","MEAN_MOTION":"15.01255146","TIME_SYSTEM":"UTC","EPHEMERIS_TYPE":"0","OBJECT_NAME":"STARLINK-4409","REF_FRAME":"TEME","MEAN_MOTION_DOT":"0.00000927","PERIAPSIS":"561.786","CLASSIFICATION_TYPE":"U","BSTAR":"0.00007672900000","APOAPSIS":"564.268","TLE_LINE2":"2 53203  97.6561 215.1992 0001788 100.7692 259.3733 15.01255146 47662","ARG_OF_PERICENTER":"100.7692","RCS_SIZE":"LARGE","REV_AT_EPOCH":"4766","DECAY_DATE":null,"CENTER_NAME":"EARTH","SEMIMAJOR_AXIS":"6941.162","COUNTRY_CODE":"US","NORAD_CAT_ID":"53203","RA_OF_ASC_NODE":"215.1992","MEAN_ELEMENT_THEORY":"SGP4","SITE":"AFWTR","OBJECT_ID":"2022-084Q","MEAN_MOTION_DDOT":"0.0000000000000","MEAN_ANOMALY":"259.3733","OBJECT_TYPE":"PAYLOAD","ELEMENT_SET_NO":"999"},{"SEMIMAJOR_AXIS":"6941.160","DECAY_DATE":null,"CENTER_NAME":"EARTH","REV_AT_EPOCH":"4829","RCS_SIZE":"LARGE","ARG_OF_PERICENTER":"153.0683","TLE_LINE2":"2 53204  97.6565 215.0063 0001016 153.0683 207.0594 15.01255727 48290","APOAPSIS":"563.730","ELEMENT_SET_NO":"999","OBJECT_TYPE":"PAYLOAD","MEAN_ANOMALY":"207.0594","MEAN_MOTION_DDOT":"0.0000000000000","OBJECT_ID":"2022-084R","SITE":"AFWTR","MEAN_ELEMENT_THEORY":"SGP4","RA_OF_ASC_NODE":"215.0063","NORAD_CAT_ID":"53204","COUNTRY_CODE":"US","PERIOD":"95.920","EPOCH":"2023-06-02T17:08:58.962048","INCLINATION":"97.6565","LAUNCH_DATE":"2022-07-22","ECCENTRICITY":"0.00010160","TLE_LINE1":"1 53204U 22084R   23153.71457132  .00000685  00000-0  57909-4 0  9997","FILE":"3923570","GP_ID":"233071976","BSTAR":"0.00005790900000","CLASSIFICATION_TYPE":"U","PERIAPSIS":"562.320","REF_FRAME":"TEME","OBJECT_NAME":"STARLINK-4410","MEAN_MOTION_DOT":"0.00000685","EPHEMERIS_TYPE":"0","TIME_SYSTEM":"UTC","MEAN_MOTION":"15.01255727"},{"PERIOD":"95.920","EPOCH":"2023-06-02T21:43:35.948352","INCLINATION":"97.6553","LAUNCH_DATE":"2022-07-22","ECCENTRICITY":"0.00020260","TLE_LINE1":"1 53205U 22084S   23153.90527718  .00000770  00000-0  64551-4 0  9993","FILE":"3923570","GP_ID":"233073228","BSTAR":"0.00006455100000","CLASSIFICATION_TYPE":"U","PERIAPSIS":"561.619","REF_FRAME":"TEME","OBJECT_NAME":"STARLINK-4397","MEAN_MOTION_DOT":"0.00000770","EPHEMERIS_TYPE":"0","TIME_SYSTEM":"UTC","MEAN_MOTION":"15.01255571","SEMIMAJOR_AXIS":"6941.160","CENTER_NAME":"EARTH","DECAY_DATE":null,"REV_AT_EPOCH":"4766","RCS_SIZE":"LARGE","ARG_OF_PERICENTER":"103.4064","TLE_LINE2":"2 53205  97.6553 215.1938 0002026 103.4064 256.7386 15.01255571 47661","APOAPSIS":"564.432","ELEMENT_SET_NO":"999","OBJECT_TYPE":"PAYLOAD","MEAN_ANOMALY":"256.7386","MEAN_MOTION_DDOT":"0.0000000000000","OBJECT_ID":"2022-084S","SITE":"AFWTR","MEAN_ELEMENT_THEORY":"SGP4","RA_OF_ASC_NODE":"215.1938","NORAD_CAT_ID":"53205","COUNTRY_CODE":"US"},{"EPHEMERIS_TYPE":"0","REF_FRAME":"TEME","MEAN_MOTION_DOT":"0.00000470","OBJECT_NAME":"STARLINK-4408","TIME_SYSTEM":"UTC","MEAN_MOTION":"15.02067933","BSTAR":"0.00004034700000","CLASSIFICATION_TYPE":"U","PERIAPSIS":"559.189","TLE_LINE1":"1 53206U 22084T   23153.90326486  .00000470  00000-0  40347-4 0  9997","ECCENTRICITY":"0.00019220","GP_ID":"233073476","FILE":"3923570","EPOCH":"2023-06-02T21:40:42.083904","PERIOD":"95.868","INCLINATION":"97.6555","LAUNCH_DATE":"2022-07-22","SITE":"AFWTR","OBJECT_ID":"2022-084T","MEAN_ELEMENT_THEORY":"SGP4","NORAD_CAT_ID":"53206","RA_OF_ASC_NODE":"215.2035","COUNTRY_CODE":"US","OBJECT_TYPE":"PAYLOAD","ELEMENT_SET_NO":"999","MEAN_ANOMALY":"261.3823","MEAN_MOTION_DDOT":"0.0000000000000","ARG_OF_PERICENTER":"98.7619","APOAPSIS":"561.856","TLE_LINE2":"2 53206  97.6555 215.2035 0001922  98.7619 261.3823 15.02067933 47661","CENTER_NAME":"EARTH","DECAY_DATE":null,"SEMIMAJOR_AXIS":"6938.658","REV_AT_EPOCH":"4766","RCS_SIZE":"LARGE"},{"LAUNCH_DATE":"2022-07-22","INCLINATION":"97.6545","PERIOD":"95.920","EPOCH":"2023-06-02T21:40:55.904448","FILE":"3923570","GP_ID":"233072227","ECCENTRICITY":"0.00024240","TLE_LINE1":"1 53207U 22084U   23153.90342482  .00000251  00000-0  24123-4 0  9993","PERIAPSIS":"561.345","CLASSIFICATION_TYPE":"U","BSTAR":"0.00002412300000","MEAN_MOTION":"15.01254820","TIME_SYSTEM":"UTC","REF_FRAME":"TEME","OBJECT_NAME":"STARLINK-4413","MEAN_MOTION_DOT":"0.00000251","EPHEMERIS_TYPE":"0","RCS_SIZE":"LARGE","REV_AT_EPOCH":"4766","SEMIMAJOR_AXIS":"6941.163","DECAY_DATE":null,"CENTER_NAME":"EARTH","TLE_LINE2":"2 53207  97.6545 215.1916 0002424 101.1838 258.9658 15.01254820 47668","APOAPSIS":"564.710","ARG_OF_PERICENTER":"101.1838","MEAN_MOTION_DDOT":"0.0000000000000","MEAN_ANOMALY":"258.9658","ELEMENT_SET_NO":"999","OBJECT_TYPE":"PAYLOAD","COUNTRY_CODE":"US","RA_OF_ASC_NODE":"215.1916","NORAD_CAT_ID":"53207","MEAN_ELEMENT_THEORY":"SGP4","OBJECT_ID":"2022-084U","SITE":"AFWTR"}];
